SEEDS II (CO-66)        
1 32791U 08021J   26068.92109284  .00023758  00000+0  84213-3 0  9995
2 32791  97.7519  62.3611 0001448 359.2618   0.8619 15.29097235972108
STARLINK-31866          
1 59668U 24084Q   26068.91942745  .00000940  00000+0  43681-4 0  9993
2 59668  42.9986  33.0943 0001034 225.7719 134.3047 15.27567508104493
